0 SL-24 R/B
1 31790U 07028B   13281.48798334  .00011192  00000-0  46869-3 0  8010
2 31790 064.5015 299.8514 0025494 248.2970 111.5441 15.23640800346512
0 SL-24 R/B
1 31790U 07028B   13282.01306765  .00018811  00000-0  78026-3 0  8029
2 31790 064.5015 298.1180 0025406 248.2522 111.5900 15.23663068346598
0 SL-24 R/B
1 31790U 07028B   13283.19447768  .00017442  00000-0  72359-3 0  8031
2 31790 064.5013 294.2175 0025200 248.4115 111.4325 15.23699614346775
0 SL-24 R/B
1 31790U 07028B   13284.37586050  .00017736  00000-0  73509-3 0  8045
2 31790 064.5013 290.3172 0024969 248.4966 111.3497 15.23728962346952
0 SL-24 R/B
1 31790U 07028B   13285.42595851  .00015014  00000-0  62339-3 0  8058
2 31790 064.5010 286.8498 0024835 248.4897 111.3581 15.23759270347114
0 SL-24 R/B
1 31790U 07028B   13287.13232457  .00015520  00000-0  64322-3 0  8065
2 31790 064.5006 281.2152 0024659 248.2970 111.5530 15.23806677347377
0 SL-24 R/B
1 31790U 07028B   13288.44487391  .00023499  00000-0  96684-3 0  8070
2 31790 064.5008 276.8808 0024546 248.2032 111.6482 15.23857303347572
0 SL-24 R/B
1 31790U 07028B   13289.42925639  .00020802  00000-0  85636-3 0  8082
2 31790 064.5009 273.6296 0024507 248.0237 111.8285 15.23891922347726
0 SL-24 R/B
1 31790U 07028B   13291.13546811  .00018930  00000-0  77891-3 0  8098
2 31790 064.5013 267.9943 0024521 247.6273 112.2255 15.23951385347987
0 SL-24 R/B
1 31790U 07028B   13292.44789414  .00018545  00000-0  76233-3 0  8104
2 31790 064.5014 263.6595 0024531 247.3689 112.4842 15.23994269348188
0 SL-24 R/B
1 31790U 07028B   13294.08837413  .00019840  00000-0  81355-3 0  8110
2 31790 064.5017 258.2408 0024535 247.1597 112.6937 15.24045538348436
0 SL-24 R/B
1 31790U 07028B   13295.13825143  .00020031  00000-0  82053-3 0  8125
2 31790 064.5018 254.7728 0024506 247.1703 112.6835 15.24076887348595
